ONEWEB-0546             
1 56048U 23043C   26014.43374715  .00000089  00000+0  19832-3 0  9994
2 56048  87.9034 259.3828 0001802  99.1891 260.9444 13.16594601138738
ONEWEB-0547             
1 56049U 23043D   26014.43378318 -.00000263  00000+0 -66927-3 0  9991
2 56049  87.9219 274.6439 0001430  73.7923 286.3368 13.21825476137912
ONEWEB-0548             
1 56050U 23043E   26014.61027656 -.00000040  00000+0 -13844-3 0  9992
2 56050  87.9030 259.3499 0001912  69.4143 290.7193 13.16593343138759
ONEWEB-0549             
1 56051U 23043F   26014.12360816  .00000111  00000+0  23643-3 0  9992
2 56051  87.9220 274.7186 0001318  74.3476 285.7803 13.21825664137873
ONEWEB-0550             
1 56052U 23043G   26014.26184438 -.00000020  00000+0 -78793-4 0  9990
2 56052  87.9217 274.6862 0001695  76.9048 283.2275 13.21826466137890
ONEWEB-0551             
1 56053U 23043H   26014.29124874  .00000180  00000+0  44483-3 0  9995
2 56053  87.9006 289.9494 0001347  73.1337 286.9941 13.15547206136165
ONEWEB-0552             
1 56054U 23043J   26014.40828539  .00000052  00000+0  93502-4 0  9993
2 56054  87.9218 274.6656 0001502  66.4292 293.6999 13.21825331137917
ONEWEB-0553             
1 56055U 23043K   26014.36407226  .00000119  00000+0  27664-3 0  9994
2 56055  87.9029 259.4016 0001722  86.3895 273.7433 13.16596765138736
ONEWEB-0554             
1 56056U 23043L   26014.12341943  .00000117  00000+0  27301-3 0  9998
2 56056  87.9026 259.4608 0001754  73.3374 286.7950 13.16595356138681
ONEWEB-0555             
1 56057U 23043M   26014.08543184 -.00000082  00000+0 -24726-3 0  9996
2 56057  87.9034 259.4522 0001849  93.2274 266.9069 13.16594651138689
ONEWEB-0557             
1 56058U 23043N   26014.40367229 -.00000002  00000+0 -39916-4 0  9997
2 56058  87.9029 259.4008 0002798  80.3141 279.8306 13.16594235138727
ONEWEB-0558             
1 56059U 23043P   26014.25031472 -.00000008  00000+0 -50614-4 0  9993
2 56059  87.9216 274.6900 0001040  75.5889 284.5360 13.21825228137907
ONEWEB-0559             
1 56060U 23043Q   26014.23878306  .00000030  00000+0  40585-4 0  9997
2 56060  87.9217 274.6861 0001398  67.1077 293.0205 13.21827726137917
ONEWEB-0566             
1 56061U 23043R   26014.23219253 -.00000034  00000+0 -11401-3 0  9998
2 56061  87.9219 274.6861 0001254  68.8037 291.3231 13.21827912137899
ONEWEB-0568             
1 56062U 23043S   26014.64907334  .00000031  00000+0  48690-4 0  9994
2 56062  87.9031 259.3406 0001631  87.7920 272.3397 13.16594156138772
ONEWEB-0574             
1 56063U 23043T   26014.45272475 -.00000016  00000+0 -69478-4 0  9997
2 56063  87.9225 274.6298 0001763  74.3587 285.7741 13.21825076137969
