[{"OBJECT_NAME":"ONEWEB-0546","OBJECT_ID":"2023-043C","EPOCH":"2026-01-14T10:24:35.753760","MEAN_MOTION":13.16594601,"ECCENTRICITY":0.00018029,"INCLINATION":87.9034,"RA_OF_ASC_NODE":259.3828,"ARG_OF_PERICENTER":99.1891,"MEAN_ANOMALY":260.9444,"EPHEMERIS_TYPE":0,"CLASSIFICATION_TYPE":"U","NORAD_CAT_ID":56048,"ELEMENT_SET_NO":999,"REV_AT_EPOCH":13873,"BSTAR":0.00019832445,"MEAN_MOTION_DOT":8.9e-7,"MEAN_MOTION_DDOT":0},{"OBJECT_NAME":"ONEWEB-0547","OBJECT_ID":"2023-043D","EPOCH":"2026-01-14T10:24:38.866752","MEAN_MOTION":13.21825476,"ECCENTRICITY":0.00014308,"INCLINATION":87.9219,"RA_OF_ASC_NODE":274.6439,"ARG_OF_PERICENTER":73.7923,"MEAN_ANOMALY":286.3368,"EPHEMERIS_TYPE":0,"CLASSIFICATION_TYPE":"U","NORAD_CAT_ID":56049,"ELEMENT_SET_NO":999,"REV_AT_EPOCH":13791,"BSTAR":-0.00066926803,"MEAN_MOTION_DOT":-2.63e-6,"MEAN_MOTION_DDOT":0},{"OBJECT_NAME":"ONEWEB-0548","OBJECT_ID":"2023-043E","EPOCH":"2026-01-14T14:38:47.894784","MEAN_MOTION":13.16593343,"ECCENTRICITY":0.00019125,"INCLINATION":87.903,"RA_OF_ASC_NODE":259.3499,"ARG_OF_PERICENTER":69.4143,"MEAN_ANOMALY":290.7193,"EPHEMERIS_TYPE":0,"CLASSIFICATION_TYPE":"U","NORAD_CAT_ID":56050,"ELEMENT_SET_NO":999,"REV_AT_EPOCH":13875,"BSTAR":-0.00013844149,"MEAN_MOTION_DOT":-4.0e-7,"MEAN_MOTION_DDOT":0},{"OBJECT_NAME":"ONEWEB-0549","OBJECT_ID":"2023-043F","EPOCH":"2026-01-14T02:57:59.745024","MEAN_MOTION":13.21825664,"ECCENTRICITY":0.00013187,"INCLINATION":87.922,"RA_OF_ASC_NODE":274.7186,"ARG_OF_PERICENTER":74.3476,"MEAN_ANOMALY":285.7803,"EPHEMERIS_TYPE":0,"CLASSIFICATION_TYPE":"U","NORAD_CAT_ID":56051,"ELEMENT_SET_NO":999,"REV_AT_EPOCH":13787,"BSTAR":0.00023642938,"MEAN_MOTION_DOT":1.11e-6,"MEAN_MOTION_DDOT":0},{"OBJECT_NAME":"ONEWEB-0550","OBJECT_ID":"2023-043G","EPOCH":"2026-01-14T06:17:03.354432","MEAN_MOTION":13.21826466,"ECCENTRICITY":0.00016959,"INCLINATION":87.9217,"RA_OF_ASC_NODE":274.6862,"ARG_OF_PERICENTER":76.9048,"MEAN_ANOMALY":283.2275,"EPHEMERIS_TYPE":0,"CLASSIFICATION_TYPE":"U","NORAD_CAT_ID":56052,"ELEMENT_SET_NO":999,"REV_AT_EPOCH":13789,"BSTAR":-7.8792749e-5,"MEAN_MOTION_DOT":-2.0e-7,"MEAN_MOTION_DDOT":0},{"OBJECT_NAME":"ONEWEB-0551","OBJECT_ID":"2023-043H","EPOCH":"2026-01-14T06:59:23.891136","MEAN_MOTION":13.15547206,"ECCENTRICITY":0.0001347,"INCLINATION":87.9006,"RA_OF_ASC_NODE":289.9494,"ARG_OF_PERICENTER":73.1337,"MEAN_ANOMALY":286.9941,"EPHEMERIS_TYPE":0,"CLASSIFICATION_TYPE":"U","NORAD_CAT_ID":56053,"ELEMENT_SET_NO":999,"REV_AT_EPOCH":13616,"BSTAR":0.00044483477,"MEAN_MOTION_DOT":1.8e-6,"MEAN_MOTION_DDOT":0},{"OBJECT_NAME":"ONEWEB-0552","OBJECT_ID":"2023-043J","EPOCH":"2026-01-14T09:47:55.857696","MEAN_MOTION":13.21825331,"ECCENTRICITY":0.00015026,"INCLINATION":87.9218,"RA_OF_ASC_NODE":274.6656,"ARG_OF_PERICENTER":66.4292,"MEAN_ANOMALY":293.6999,"EPHEMERIS_TYPE":0,"CLASSIFICATION_TYPE":"U","NORAD_CAT_ID":56054,"ELEMENT_SET_NO":999,"REV_AT_EPOCH":13791,"BSTAR":9.3501905e-5,"MEAN_MOTION_DOT":5.2e-7,"MEAN_MOTION_DDOT":0},{"OBJECT_NAME":"ONEWEB-0553","OBJECT_ID":"2023-043K","EPOCH":"2026-01-14T08:44:15.843264","MEAN_MOTION":13.16596765,"ECCENTRICITY":0.00017223,"INCLINATION":87.9029,"RA_OF_ASC_NODE":259.4016,"ARG_OF_PERICENTER":86.3895,"MEAN_ANOMALY":273.7433,"EPHEMERIS_TYPE":0,"CLASSIFICATION_TYPE":"U","NORAD_CAT_ID":56055,"ELEMENT_SET_NO":999,"REV_AT_EPOCH":13873,"BSTAR":0.00027663686,"MEAN_MOTION_DOT":1.19e-6,"MEAN_MOTION_DDOT":0},{"OBJECT_NAME":"ONEWEB-0554","OBJECT_ID":"2023-043L","EPOCH":"2026-01-14T02:57:43.438752","MEAN_MOTION":13.16595356,"ECCENTRICITY":0.00017546,"INCLINATION":87.9026,"RA_OF_ASC_NODE":259.4608,"ARG_OF_PERICENTER":73.3374,"MEAN_ANOMALY":286.795,"EPHEMERIS_TYPE":0,"CLASSIFICATION_TYPE":"U","NORAD_CAT_ID":56056,"ELEMENT_SET_NO":999,"REV_AT_EPOCH":13868,"BSTAR":0.00027301362,"MEAN_MOTION_DOT":1.17e-6,"MEAN_MOTION_DDOT":0},{"OBJECT_NAME":"ONEWEB-0555","OBJECT_ID":"2023-043M","EPOCH":"2026-01-14T02:03:01.310976","MEAN_MOTION":13.16594651,"ECCENTRICITY":0.00018499,"INCLINATION":87.9034,"RA_OF_ASC_NODE":259.4522,"ARG_OF_PERICENTER":93.2274,"MEAN_ANOMALY":266.9069,"EPHEMERIS_TYPE":0,"CLASSIFICATION_TYPE":"U","NORAD_CAT_ID":56057,"ELEMENT_SET_NO":999,"REV_AT_EPOCH":13868,"BSTAR":-0.00024725953,"MEAN_MOTION_DOT":-8.2e-7,"MEAN_MOTION_DDOT":0},{"OBJECT_NAME":"ONEWEB-0557","OBJECT_ID":"2023-043N","EPOCH":"2026-01-14T09:41:17.285856","MEAN_MOTION":13.16594235,"ECCENTRICITY":0.00027983,"INCLINATION":87.9029,"RA_OF_ASC_NODE":259.4008,"ARG_OF_PERICENTER":80.3141,"MEAN_ANOMALY":279.8306,"EPHEMERIS_TYPE":0,"CLASSIFICATION_TYPE":"U","NORAD_CAT_ID":56058,"ELEMENT_SET_NO":999,"REV_AT_EPOCH":13872,"BSTAR":-3.9915688e-5,"MEAN_MOTION_DOT":-2.0e-8,"MEAN_MOTION_DDOT":0},{"OBJECT_NAME":"ONEWEB-0558","OBJECT_ID":"2023-043P","EPOCH":"2026-01-14T06:00:27.191808","MEAN_MOTION":13.21825228,"ECCENTRICITY":0.00010408,"INCLINATION":87.9216,"RA_OF_ASC_NODE":274.69,"ARG_OF_PERICENTER":75.5889,"MEAN_ANOMALY":284.536,"EPHEMERIS_TYPE":0,"CLASSIFICATION_TYPE":"U","NORAD_CAT_ID":56059,"ELEMENT_SET_NO":999,"REV_AT_EPOCH":13790,"BSTAR":-5.0613724e-5,"MEAN_MOTION_DOT":-8.0e-8,"MEAN_MOTION_DDOT":0},{"OBJECT_NAME":"ONEWEB-0559","OBJECT_ID":"2023-043Q","EPOCH":"2026-01-14T05:43:50.856384","MEAN_MOTION":13.21827726,"ECCENTRICITY":0.00013985,"INCLINATION":87.9217,"RA_OF_ASC_NODE":274.6861,"ARG_OF_PERICENTER":67.1077,"MEAN_ANOMALY":293.0205,"EPHEMERIS_TYPE":0,"CLASSIFICATION_TYPE":"U","NORAD_CAT_ID":56060,"ELEMENT_SET_NO":999,"REV_AT_EPOCH":13791,"BSTAR":4.0584556e-5,"MEAN_MOTION_DOT":3.0e-7,"MEAN_MOTION_DDOT":0},{"OBJECT_NAME":"ONEWEB-0566","OBJECT_ID":"2023-043R","EPOCH":"2026-01-14T05:34:21.434592","MEAN_MOTION":13.21827912,"ECCENTRICITY":0.00012543,"INCLINATION":87.9219,"RA_OF_ASC_NODE":274.6861,"ARG_OF_PERICENTER":68.8037,"MEAN_ANOMALY":291.3231,"EPHEMERIS_TYPE":0,"CLASSIFICATION_TYPE":"U","NORAD_CAT_ID":56061,"ELEMENT_SET_NO":999,"REV_AT_EPOCH":13789,"BSTAR":-0.00011401175,"MEAN_MOTION_DOT":-3.4e-7,"MEAN_MOTION_DDOT":0},{"OBJECT_NAME":"ONEWEB-0568","OBJECT_ID":"2023-043S","EPOCH":"2026-01-14T15:34:39.936576","MEAN_MOTION":13.16594156,"ECCENTRICITY":0.0001631,"INCLINATION":87.9031,"RA_OF_ASC_NODE":259.3406,"ARG_OF_PERICENTER":87.792,"MEAN_ANOMALY":272.3397,"EPHEMERIS_TYPE":0,"CLASSIFICATION_TYPE":"U","NORAD_CAT_ID":56062,"ELEMENT_SET_NO":999,"REV_AT_EPOCH":13877,"BSTAR":4.8690096e-5,"MEAN_MOTION_DOT":3.1e-7,"MEAN_MOTION_DDOT":0},{"OBJECT_NAME":"ONEWEB-0574","OBJECT_ID":"2023-043T","EPOCH":"2026-01-14T10:51:55.418400","MEAN_MOTION":13.21825076,"ECCENTRICITY":0.00017639,"INCLINATION":87.9225,"RA_OF_ASC_NODE":274.6298,"ARG_OF_PERICENTER":74.3587,"MEAN_ANOMALY":285.7741,"EPHEMERIS_TYPE":0,"CLASSIFICATION_TYPE":"U","NORAD_CAT_ID":56063,"ELEMENT_SET_NO":999,"REV_AT_EPOCH":13796,"BSTAR":-6.9477608e-5,"MEAN_MOTION_DOT":-1.6e-7,"MEAN_MOTION_DDOT":0}]
